NORAD_CAT_ID,OBJECT_NAME,OBJECT_TYPE,EPOCH,MEAN_MOTION,ECCENTRICITY,INCLINATION,RA_OF_ASC_NODE,ARG_OF_PERICENTER,MEAN_ANOMALY,BSTAR,MEAN_MOTION_DOT,MEAN_MOTION_DDOT,TLE_LINE0,TLE_LINE1,TLE_LINE2,SEMIMAJOR_AXIS,PERIOD,APOGEE,PERIGEE,DECAYED
54191.0,STARLINK-4619,PAYLOAD,2024-03-16 22:31:26,15.0882754,0.0001316,53.2184,358.9119,75.3812,284.7326,0.00013122,1.8e-05,0.0,0 STARLINK-4619,1 54191U 22141AL  24076.93849549  .00001800  00000-0  13122-3 0  9991,2 54191  53.2184 358.9119 0001316  75.3812 284.7326 15.08827540 76889,6917.918,95.438,540.694,538.873,0.0
54191.0,STARLINK-4619,PAYLOAD,2024-03-17 01:42:11,15.0885144,0.000134,53.2182,358.3172,96.7117,263.4028,0.00044769,6.846e-05,0.0,0 STARLINK-4619,1 54191U 22141AL  24077.07096526  .00006846  00000-0  44769-3 0  9992,2 54191  53.2182 358.3172 0001340  96.7117 263.4028 15.08851440 77130,6917.845,95.437,540.637,538.783,0.0
54191.0,STARLINK-4619,PAYLOAD,2024-03-17 22:22:11,15.08853415,0.0001537,53.2188,354.4496,102.5786,257.5378,0.00033196,5.001e-05,0.0,0 STARLINK-4619,1 54191U 22141AL  24077.93208114  .00005001  00000-0  33196-3 0  9999,2 54191  53.2188 354.4496 0001537 102.5786 257.5378 15.08853415 77033,6917.839,95.437,540.768,538.641,0.0
54191.0,STARLINK-4619,PAYLOAD,2024-03-18 04:43:44,15.08846721,0.0001533,53.2182,353.2623,61.1514,298.9632,0.00030979,4.647e-05,0.0,0 STARLINK-4619,1 54191U 22141AL  24078.19704429  .00004647  00000-0  30979-3 0  9999,2 54191  53.2182 353.2623 0001533  61.1514 298.9632 15.08846721 77305,6917.86,95.437,540.785,538.664,0.0
54191.0,STARLINK-4619,PAYLOAD,2024-03-18 22:12:58,15.0884928,0.0001405,53.2184,349.9905,91.498,268.6173,-0.00011565,-2.129e-05,0.0,0 STARLINK-4619,1 54191U 22141AL  24078.92567957 -.00002129  00000-0 -11565-3 0  9998,2 54191  53.2184 349.9905 0001405  91.4980 268.6173 15.08849280 77186,6917.852,95.437,540.689,538.745,0.0
54191.0,STARLINK-4619,PAYLOAD,2024-03-19 02:59:08,15.08854779,0.0001419,53.2195,349.0985,96.5851,263.5303,-1.7179e-06,-3.15e-06,0.0,0 STARLINK-4619,1 54191U 22141AL  24079.12439960 -.00000315  00000-0 -17179-5 0  9997,2 54191  53.2195 349.0985 0001419  96.5851 263.5303 15.08854779 77217,6917.835,95.437,540.682,538.719,0.0
54191.0,STARLINK-4619,PAYLOAD,2024-03-19 22:03:45,15.08853894,0.0001413,53.2193,345.5307,97.7656,262.3497,7.028e-05,8.31e-06,0.0,0 STARLINK-4619,1 54191U 22141AL  24079.91927094  .00000831  00000-0  70280-4 0  9996,2 54191  53.2193 345.5307 0001413  97.7656 262.3497 15.08853894 77560,6917.838,95.437,540.68,538.725,0.0
54191.0,STARLINK-4619,PAYLOAD,2024-03-20 01:14:31,15.08854714,0.0001385,53.2193,344.936,93.91,266.2051,7.302e-05,8.75e-06,0.0,0 STARLINK-4619,1 54191U 22141AL  24080.05174941  .00000875  00000-0  73020-4 0  9991,2 54191  53.2193 344.9360 0001385  93.9100 266.2051 15.08854714 77350,6917.835,95.437,540.659,538.742,0.0
54191.0,STARLINK-4619,PAYLOAD,2024-03-20 21:54:32,15.08844378,0.0001254,53.2193,341.0702,108.8224,251.2904,1.3659e-05,-7e-07,0.0,0 STARLINK-4619,1 54191U 22141AL  24080.91287520 -.00000070  00000-0  13659-4 0  9994,2 54191  53.2193 341.0702 0001254 108.8224 251.2904 15.08844378 77486,6917.867,95.437,540.6,538.865,0.0
54191.0,STARLINK-4619,PAYLOAD,2024-03-21 02:40:42,15.08837869,0.000124,53.2191,340.1787,89.1349,270.9785,-3.7405e-05,-8.83e-06,0.0,0 STARLINK-4619,1 54191U 22141AL  24081.11160222 -.00000883  00000-0 -37405-4 0  9994,2 54191  53.2191 340.1787 0001240  89.1349 270.9785 15.08837869 77742,6917.887,95.438,540.61,538.894,0.0
54191.0,STARLINK-4619,PAYLOAD,2024-03-21 10:37:37,15.08846804,0.0001099,53.2178,338.6956,96.5416,263.5701,2.3311e-05,8.3e-07,0.0,0 STARLINK-4619,1 54191U 22141AL  24081.44279190  .00000083  00000-0  23311-4 0  9996,2 54191  53.2178 338.6956 0001099  96.5416 263.5701 15.08846804 77796,6917.86,95.437,540.485,538.964,0.0
54191.0,STARLINK-4619,PAYLOAD,2024-03-21 21:45:18,15.0884914,0.0001063,53.2178,336.6127,93.4417,266.6697,1.7411e-05,-1.1e-07,0.0,0 STARLINK-4619,1 54191U 22141AL  24081.90646936 -.00000011  00000-0  17411-4 0  9999,2 54191  53.2178 336.6127 0001063  93.4417 266.6697 15.08849140 77639,6917.852,95.437,540.453,538.982,0.0
54191.0,STARLINK-4619,PAYLOAD,2024-03-21 23:20:41,15.08851933,0.0001343,53.2176,336.3161,87.6447,272.4698,4.2449e-05,3.88e-06,0.0,0 STARLINK-4619,1 54191U 22141AL  24081.97270759  .00000388  00000-0  42449-4 0  9997,2 54191  53.2176 336.3161 0001343  87.6447 272.4698 15.08851933 77641,6917.844,95.437,540.638,538.78,0.0
54191.0,STARLINK-4619,PAYLOAD,2024-03-22 20:00:44,15.08823195,0.0001332,53.2184,332.4468,101.8775,258.2366,9.6003e-06,-1.35e-06,0.0,0 STARLINK-4619,1 54191U 22141AL  24082.83384378 -.00000135  00000-0  96003-5 0  9993,2 54191  53.2184 332.4468 0001332 101.8775 258.2366 15.08823195 78002,6917.932,95.439,540.718,538.875,0.0
54191.0,STARLINK-4619,PAYLOAD,2024-03-22 21:36:07,15.08823451,0.0001502,53.2183,332.1492,108.398,251.7175,1.1436e-05,-1.06e-06,0.0,0 STARLINK-4619,1 54191U 22141AL  24082.90008368 -.00000106  00000-0  11436-4 0  9997,2 54191  53.2183 332.1492 0001502 108.3980 251.7175 15.08823451 77789,6917.931,95.439,540.835,538.757,0.0
54191.0,STARLINK-4619,PAYLOAD,2024-03-23 21:26:53,15.08836887,0.0001259,53.2169,327.6882,101.8946,258.2187,3.1948e-05,2.21e-06,0.0,0 STARLINK-4619,1 54191U 22141AL  24083.89367883  .00000221  00000-0  31948-4 0  9993,2 54191  53.2169 327.6882 0001259 101.8946 258.2187 15.08836887 78169,6917.89,95.438,540.626,538.884,0.0
54191.0,STARLINK-4619,PAYLOAD,2024-03-24 08:34:34,15.0886141,0.0001284,53.2176,325.6124,88.6888,271.4252,0.0002423,3.573e-05,0.0,0 STARLINK-4619,1 54191U 22141AL  24084.35734431  .00003573  00000-0  24230-3 0  9990,2 54191  53.2176 325.6124 0001284  88.6888 271.4252 15.08861410 78237,6917.815,95.436,540.568,538.792,0.0
54191.0,STARLINK-4619,PAYLOAD,2024-03-24 21:17:42,15.08819738,0.0001648,53.2173,323.2285,79.6417,280.4761,4.7092e-05,4.61e-06,0.0,0 STARLINK-4619,1 54191U 22141AL  24084.88729629  .00000461  00000-0  47092-4 0  9996,2 54191  53.2173 323.2285 0001648  79.6417 280.4761 15.08819738 78318,6917.942,95.439,540.947,538.667,0.0
54191.0,STARLINK-4619,PAYLOAD,2024-03-24 22:53:04,15.08838598,0.0001291,53.2166,322.9305,74.2931,285.8203,0.00032009,4.81e-05,0.0,0 STARLINK-4619,1 54191U 22141AL  24084.95352756  .00004810  00000-0  32009-3 0  9990,2 54191  53.2166 322.9305 0001291  74.2931 285.8203 15.08838598 78095,6917.885,95.438,540.643,538.857,0.0
54191.0,STARLINK-4619,PAYLOAD,2024-03-25 03:39:14,15.08842914,0.0001491,53.217,322.0416,85.8033,274.3129,0.00037577,5.698e-05,0.0,0 STARLINK-4619,1 54191U 22141AL  24085.15224713  .00005698  00000-0  37577-3 0  9994,2 54191  53.2170 322.0416 0001491  85.8033 274.3129 15.08842914 78353,6917.871,95.437,540.768,538.705,0.0
54191.0,STARLINK-4619,PAYLOAD,2024-03-25 11:36:09,15.08820758,0.0001266,53.2165,320.5558,69.7975,290.3153,0.0001133,1.515e-05,0.0,0 STARLINK-4619,1 54191U 22141AL  24085.48344833  .00001515  00000-0  11330-3 0  9999,2 54191  53.2165 320.5558 0001266  69.7975 290.3153 15.08820758 78406,6917.939,95.439,540.68,538.928,0.0
54191.0,STARLINK-4619,PAYLOAD,2024-03-25 21:08:29,15.08847252,0.0001184,53.2164,318.7719,65.8719,294.2397,0.0019439,0.00030791,0.0,0 STARLINK-4619,1 54191U 22141AL  24085.88089253  .00030791  00000-0  19439-2 0  9990,2 54191  53.2164 318.7719 0001184  65.8719 294.2397 15.08847252 78462,6917.858,95.437,540.542,538.904,0.0
54191.0,STARLINK-4619,PAYLOAD,2024-03-25 22:43:52,15.08847008,0.0001156,53.2165,318.4742,65.4424,294.6688,0.0016728,0.0002644,0.0,0 STARLINK-4619,1 54191U 22141AL  24085.94713132  .00026440  00000-0  16728-2 0  9991,2 54191  53.2165 318.4742 0001156  65.4424 294.6688 15.08847008 78246,6917.859,95.437,540.524,538.924,0.0
54191.0,STARLINK-4619,PAYLOAD,2024-03-26 11:26:57,15.08830069,9.96e-05,53.2158,316.0955,73.212,286.8982,0.00025226,3.728e-05,0.0,0 STARLINK-4619,1 54191U 22141AL  24086.47705431  .00003728  00000-0  25226-3 0  9991,2 54191  53.2158 316.0955 0000996  73.2120 286.8982 15.08830069 78552,6917.911,95.438,540.465,539.087,0.0
54191.0,STARLINK-4619,PAYLOAD,2024-03-26 14:37:43,15.08829068,0.0001173,53.2159,315.5003,69.6188,290.493,5.7978e-05,6.35e-06,0.0,0 STARLINK-4619,1 54191U 22141AL  24086.60953526  .00000635  00000-0  57978-4 0  9990,2 54191  53.2159 315.5003 0001173  69.6188 290.4930 15.08829068 78340,6917.914,95.438,540.59,538.967,0.0
54191.0,STARLINK-4619,PAYLOAD,2024-03-26 22:34:39,15.08841203,0.0001078,53.2157,314.014,70.7844,289.3265,0.0012136,0.0001908,0.0,0 STARLINK-4619,1 54191U 22141AL  24086.94073576  .00019080  00000-0  12136-2 0  9994,2 54191  53.2157 314.0140 0001078  70.7844 289.3265 15.08841203 78398,6917.877,95.437,540.487,538.996,0.0
54191.0,STARLINK-4619,PAYLOAD,2024-03-27 03:20:48,15.08849948,0.0001101,53.2155,313.1218,69.3468,290.7642,0.0015776,0.00024915,0.0,0 STARLINK-4619,1 54191U 22141AL  24087.13945492  .00024915  00000-0  15776-2 0  9997,2 54191  53.2155 313.1218 0001101  69.3468 290.7642 15.08849948 78653,6917.85,95.437,540.477,538.953,0.0
54191.0,STARLINK-4619,PAYLOAD,2024-03-27 12:53:07,15.08839912,0.0001052,53.2152,311.3376,78.5379,281.5731,0.00035112,5.305e-05,0.0,0 STARLINK-4619,1 54191U 22141AL  24087.53689569  .00005305  00000-0  35112-3 0  9990,2 54191  53.2152 311.3376 0001052  78.5379 281.5731 15.08839912 78717,6917.881,95.438,540.473,539.018,0.0
54191.0,STARLINK-4619,PAYLOAD,2024-03-27 14:28:30,15.08840435,0.0001047,53.2154,311.04,76.6874,283.4235,0.0003559,5.381e-05,0.0,0 STARLINK-4619,1 54191U 22141AL  24087.60313558  .00005381  00000-0  35590-3 0  9994,2 54191  53.2154 311.0400 0001047  76.6874 283.4235 15.08840435 78494,6917.879,95.438,540.468,539.02,0.0
54191.0,STARLINK-4619,PAYLOAD,2024-03-27 22:25:26,15.08849155,0.0001055,53.2155,309.5531,75.2878,284.8231,0.00052554,8.088e-05,0.0,0 STARLINK-4619,1 54191U 22141AL  24087.93433338  .00008088  00000-0  52554-3 0  9995,2 54191  53.2155 309.5531 0001055  75.2878 284.8231 15.08849155 78545,6917.852,95.437,540.447,538.988,0.0
